ORBCOMM FM103           
1 40091U 14040F   24212.36283896  .00001278  00000+0  31993-3 0  9994
2 40091  47.0062  96.2745 0002230 247.5816 112.4833 14.56810334517154
ORBCOMM FM114           
1 41179U 15081A   24212.52999101  .00001911  00000+0  45965-3 0  9997
2 41179  47.0044   4.7079 0002375 287.0739  72.9886 14.56822216457545
ORBCOMM FM119           
1 41180U 15081B   24212.57317610  .00001290  00000+0  32271-3 0  9999
2 41180  47.0005 273.7303 0001569 330.7552  29.3245 14.56794116458807
ORBCOMM FM105           
1 41181U 15081C   24212.26787052  .00000569  00000+0  20859-3 0  9994
2 41181  47.0003 249.5052 0002572 302.4635  57.5996 14.44502099454199
ORBCOMM FM110           
1 41182U 15081D   24212.57639152  .00001946  00000+0  46691-3 0  9998
2 41182  47.0034   3.8968 0001623 158.7639 201.3314 14.56881091457420
ORBCOMM FM118           
1 41183U 15081E   24212.55408931  .00001768  00000+0  42745-3 0  9994
2 41183  47.0057   4.3286 0001752 151.4067 208.6914 14.56881452457521
ORBCOMM FM112           
1 41184U 15081F   24212.54997901  .00001492  00000+0  36726-3 0  9990
2 41184  46.9988 273.0396 0002165 315.5229  44.5482 14.56802387458744
ORBCOMM FM113           
1 41185U 15081G   24212.52728227  .00001430  00000+0  35346-3 0  9991
2 41185  47.0007 273.4274 0001666 320.3650  39.7113 14.56799331458724
